{
    "links": {
        "self": "http://www.neowsapp.com/rest/v1/neo/3741562?api_key=iIulBulltgU6a56xZRHN4H3l9WmuAYTsLGpBGhQ2"
    },
    "id": "3741562",
    "neo_reference_id": "3741562",
    "name": "(2016 CN29)",
    "designation": "2016 CN29",
    "nasa_jpl_url": "http://ssd.jpl.nasa.gov/sbdb.cgi?sstr=3741562",
    "absolute_magnitude_h": 24.3,
    "estimated_diameter": {
        "kilometers": {
            "estimated_diameter_min": 0.0366906138,
            "estimated_diameter_max": 0.0820427065
        },
        "meters": {
            "estimated_diameter_min": 36.6906137531,
            "estimated_diameter_max": 82.0427064882
        },
        "miles": {
            "estimated_diameter_min": 0.0227984834,
            "estimated_diameter_max": 0.0509789586
        },
        "feet": {
            "estimated_diameter_min": 120.3760332259,
            "estimated_diameter_max": 269.1689931548
        }
    },
    "is_potentially_hazardous_asteroid": false,
    "close_approach_data": [
        {
            "close_approach_date": "2016-01-27",
            "close_approach_date_full": "2016-Jan-27 06:57",
            "epoch_date_close_approach": 1453877820000,
            "relative_velocity": {
                "kilometers_per_second": "18.4063524527",
                "kilometers_per_hour": "66262.868829671",
                "miles_per_hour": "41173.1698014142"
            },
            "miss_distance": {
                "astronomical": "0.0236874331",
                "lunar": "9.2144114759",
                "kilometers": "3543589.537527497",
                "miles": "2201884.4358815786"
            },
            "orbiting_body": "Earth"
        }
    ],
    "orbital_data": {
        "orbit_id": "5",
        "orbit_determination_date": "2017-04-06 08:28:41",
        "first_observation_date": "2016-02-04",
        "last_observation_date": "2016-02-10",
        "data_arc_in_days": 6,
        "observations_used": 45,
        "orbit_uncertainty": "8",
        "minimum_orbit_intersection": ".0173352",
        "jupiter_tisserand_invariant": "3.324",
        "epoch_osculation": "2457425.5",
        "eccentricity": ".6770288264635783",
        "semi_major_axis": "2.192373408413795",
        "inclination": "5.620880653686998",
        "ascending_node_longitude": "315.5160078209907",
        "orbital_period": "1185.68742959994",
        "perihelion_distance": ".7080734125454481",
        "perihelion_argument": "97.23620989830722",
        "aphelion_distance": "3.676673404282143",
        "perihelion_time": "2457371.522352988160",
        "mean_anomaly": "16.38876523369982",
        "mean_motion": ".3036213347740954",
        "equinox": "J2000",
        "orbit_class": {
            "orbit_class_type": "APO",
            "orbit_class_description": "Near-Earth asteroid orbits which cross the Earth’s orbit similar to that of 1862 Apollo",
            "orbit_class_range": "a (semi-major axis) > 1.0 AU; q (perihelion) < 1.017 AU"
        }
    },
    "is_sentry_object": false
}